PERSEUS-M1              
1 40039U 14033AF  26159.33875735  .00001953  00000+0  18115-3 0  9997
2 40039  97.9642 103.3258 0010761 335.3194  24.7510 14.95608308649316
POLYITAN-1              
1 40042U 14033AJ  26159.04517620  .00019032  00000+0  59961-3 0  9996
2 40042  98.0952 184.4437 0007909 168.1396 192.0032 15.32938693652194
TIGRISAT                
1 40043U 14033AK  26159.35713876  .00002469  00000+0  28834-3 0  9993
2 40043  97.7824 309.5722 0050702 103.3828 257.3046 14.85127761644314
AEROCUBE 6A             
1 40045U 14033AM  26159.20672198  .00005623  00000+0  47354-3 0  9993
2 40045  97.7225 326.2518 0039366  47.7354 312.7195 14.98009378645272
AEROCUBE 6B             
1 40046U 14033AN  26159.41800957  .00005999  00000+0  48615-3 0  9990
2 40046  97.7230 326.2312 0039032  39.0451 321.3578 14.99474948645443
CANX-4                  
1 40055U 14034C   26159.23518148  .00001005  00000+0  13618-3 0  9998
2 40055  98.3133  34.2191 0013741  44.2907 315.9401 14.81248501643207
CANX-5                  
1 40056U 14034D   26159.43636990  .00001002  00000+0  13568-3 0  9998
2 40056  98.3136  34.4710 0013733  43.8092 316.4206 14.81266011634048
UKUBE-1                 
1 40074U 14037F   26159.50738634  .00008255  00000+0  46635-3 0  9995
2 40074  98.4240 161.8681 0002108 145.0224 215.1143 15.13414602647241
BRITE-PL2 (HEWELIUSZ)   
1 40119U 14049B   26159.20108343  .00002529  00000+0  23888-3 0  9996
2 40119  97.9088 271.1327 0015155 135.2665 224.9780 14.94564335640103
AEROCUBE 5C             
1 40965U 15058B   26159.52089088  .00002823  00000+0  25454-3 0  9993
2 40965  64.7679 289.5497 0130415  66.6733 294.8039 14.91413460364364
AEROCUBE 7              
1 40966U 15058C   26159.47507198  .00003422  00000+0  27943-3 0  9996
2 40966  64.7627 272.1029 0120133  65.1736 296.1816 14.95669845364654
FOX-1A (AO-85)          
1 40967U 15058D   26159.49859023  .00002891  00000+0  26383-3 0  9992
2 40967  64.7761 305.9846 0129963  59.9928 301.4006 14.90927920112276
SINOD-D 1               
1 40968U 15058E   26159.52092420  .00003742  00000+0  30382-3 0  9997
2 40968  64.7760 286.0508 0118541  56.5392 304.6987 14.95850283115366
SNAP-3 ALICE            
1 40970U 15058G   26159.32181709  .00100210  00000+0  12846-2 0  9999
2 40970  64.7500 134.5296 0030620  17.4610 342.7580 15.58055493115500
LMRST-SAT               
1 40971U 15058H   26159.51877997  .00002846  00000+0  26148-3 0  9999
2 40971  64.7765 302.2433 0131633  62.0095 299.4264 14.90551231112263
SNAP-3 EDDIE            
1 40972U 15058J   26159.19051797  .00100423  00000+0  12325-2 0  9997
2 40972  64.7422 125.7723 0030594  21.6245 338.6184 15.59200283117622
PROPCUBE 3              
1 40973U 15058K   26159.44176029  .00003012  00000+0  25540-3 0  9992
2 40973  64.7693 279.8588 0123649  63.3890 297.9829 14.94208256113496
BISONSAT                
1 40974U 15058L   26159.45799471  .00008524  00000+0  41811-3 0  9998
2 40974  64.7590 201.8622 0078394  50.8621 309.9436 15.16008968114296
SNAP-3 JIMI             
1 40975U 15058M   26159.33532603  .00004322  00000+0  30225-3 0  9997
2 40975  64.7649 247.7776 0105719  58.9972 302.1477 15.02222356112899
PROPCUBE 1 (FLORA)      
1 40976U 15058N   26158.86134575  .00003117  00000+0  29617-3 0  9995
2 40976  64.7759 324.1389 0130343  64.5742 296.8792 14.89178132114876
SINOD-D 3               
1 40977U 15058P   26159.47201347  .00003502  00000+0  29973-3 0  9999
2 40977  64.7735 303.0329 0118867  61.6022 299.7013 14.93960175113459
HORYU-4                 
1 41340U 16012D   26158.66010672  .00317249  00000+0  10211-2 0  9994
2 41340  30.9848 148.6331 0002832 206.9121 153.1392 15.89027763569291
RAVAN                   
1 41849U 16067B   26159.48103375  .00049719  00000+0  77096-3 0  9991
2 41849  97.9899  48.0522 0005706  55.1258 305.0530 15.53843577526348
CELTEE 1                
1 41850U 16067C   26159.38368840  .00005104  00000+0  24342-3 0  9998
2 41850  98.0685  25.3505 0000626 106.7454 253.3848 15.19595408524547
OPTICUBE 04             
1 41851U 16067D   26159.52878082  .00002862  00000+0  18189-3 0  9999
2 41851  98.0712  11.3608 0016457 142.9196 217.3172 15.09624388523865
AEROCUBE 8D             
1 41852U 16067E   26159.35933039  .00006428  00000+0  26652-3 0  9991
2 41852  98.0697  28.8593 0004155 145.1351 215.0157 15.24273762524721
AEROCUBE 8C             
1 41853U 16067F   26159.38575410  .00007152  00000+0  29386-3 0  9992
2 41853  98.0569  26.1268 0006825  92.5986 267.6031 15.24519838524726
CORVUS BC2              
1 42846U 17042X   26159.42592978  .00002769  00000+0  19240-3 0  9999
2 42846  97.4061 321.1181 0014203 137.0473 223.1867 15.06240546485745
CORVUS BC1              
1 42847U 17042Y   26159.42153110  .00002771  00000+0  19174-3 0  9990
2 42847  97.4085 321.9220 0013307 115.8711 244.3891 15.06407941485776
MAKERSAT 0              
1 43016U 17073D   26158.64340438  .00021201  00000+0  58054-3 0  9996
2 43016  97.4640  41.0894 0106135 307.5668  51.5969 15.31756991465000
