OBJECT_NAME,OBJECT_ID,EPOCH,MEAN_MOTION,ECCENTRICITY,INCLINATION,RA_OF_ASC_NODE,ARG_OF_PERICENTER,MEAN_ANOMALY,EPHEMERIS_TYPE,CLASSIFICATION_TYPE,NORAD_CAT_ID,ELEMENT_SET_NO,REV_AT_EPOCH,BSTAR,MEAN_MOTION_DOT,MEAN_MOTION_DDOT
PERSEUS-M1,2014-033AF,2026-06-08T08:07:48.635040,14.95608308,.0010761,97.9642,103.3258,335.3194,24.7510,0,U,40039,999,64931,.18115E-3,.1953E-4,0
POLYITAN-1,2014-033AJ,2026-06-08T01:05:03.223680,15.32938693,.00079092,98.0952,184.4437,168.1396,192.0032,0,U,40042,999,65219,.5996053E-3,.19032E-3,0
TIGRISAT,2014-033AK,2026-06-08T08:34:16.788864,14.85127761,.0050702,97.7824,309.5722,103.3828,257.3046,0,U,40043,999,64431,.28834E-3,.2469E-4,0
AEROCUBE 6A,2014-033AM,2026-06-08T04:57:40.779072,14.98009378,.0039366,97.7225,326.2518,47.7354,312.7195,0,U,40045,999,64527,.47354E-3,.5623E-4,0
AEROCUBE 6B,2014-033AN,2026-06-08T10:01:56.026848,14.99474948,.0039032,97.7230,326.2312,39.0451,321.3578,0,U,40046,999,64544,.48615E-3,.5999E-4,0
CANX-4,2014-034C,2026-06-08T05:38:39.679872,14.81248501,.0013741,98.3133,34.2191,44.2907,315.9401,0,U,40055,999,64320,.13618E-3,.1005E-4,0
CANX-5,2014-034D,2026-06-08T10:28:22.359360,14.81266011,.0013733,98.3136,34.4710,43.8092,316.4206,0,U,40056,999,63404,.13568E-3,.1002E-4,0
UKUBE-1,2014-037F,2026-06-08T12:10:38.179776,15.13414602,.0002108,98.4240,161.8681,145.0224,215.1143,0,U,40074,999,64724,.46635E-3,.8255E-4,0
BRITE-PL2 (HEWELIUSZ),2014-049B,2026-06-08T04:49:33.608352,14.94564335,.0015155,97.9088,271.1327,135.2665,224.9780,0,U,40119,999,64010,.23888E-3,.2529E-4,0
AEROCUBE 5C,2015-058B,2026-06-08T12:30:04.972032,14.91413460,.0130415,64.7679,289.5497,66.6733,294.8039,0,U,40965,999,36436,.25454E-3,.2823E-4,0
AEROCUBE 7,2015-058C,2026-06-08T11:24:06.219072,14.95669845,.0120133,64.7627,272.1029,65.1736,296.1816,0,U,40966,999,36465,.27943E-3,.3422E-4,0
FOX-1A (AO-85),2015-058D,2026-06-08T11:57:58.195872,14.90927920,.0129963,64.7761,305.9846,59.9928,301.4006,0,U,40967,999,11227,.26383E-3,.2891E-4,0
SINOD-D 1,2015-058E,2026-06-08T12:30:07.850880,14.95850283,.0118541,64.7760,286.0508,56.5392,304.6987,0,U,40968,999,11536,.30382E-3,.3742E-4,0
SNAP-3 ALICE,2015-058G,2026-06-08T07:43:24.996576,15.58055493,.003062,64.7500,134.5296,17.4610,342.7580,0,U,40970,999,11550,.12846E-2,.10021E-2,0
LMRST-SAT,2015-058H,2026-06-08T12:27:02.589408,14.90551231,.0131633,64.7765,302.2433,62.0095,299.4264,0,U,40971,999,11226,.26148E-3,.2846E-4,0
SNAP-3 EDDIE,2015-058J,2026-06-08T04:34:20.752608,15.59200283,.00305946,64.7422,125.7723,21.6245,338.6184,0,U,40972,999,11762,.12325481E-2,.100423E-2,0
PROPCUBE 3,2015-058K,2026-06-08T10:36:08.089056,14.94208256,.0123649,64.7693,279.8588,63.3890,297.9829,0,U,40973,999,11349,.2554E-3,.3012E-4,0
BISONSAT,2015-058L,2026-06-08T10:59:30.742944,15.16008968,.0078394,64.7590,201.8622,50.8621,309.9436,0,U,40974,999,11429,.41811E-3,.8524E-4,0
SNAP-3 JIMI,2015-058M,2026-06-08T08:02:52.168992,15.02222356,.0105719,64.7649,247.7776,58.9972,302.1477,0,U,40975,999,11289,.30225E-3,.4322E-4,0
PROPCUBE 1 (FLORA),2015-058N,2026-06-07T20:40:20.272800,14.89178132,.01303439,64.7759,324.1389,64.5742,296.8792,0,U,40976,999,11487,.29617202E-3,.3117E-4,0
SINOD-D 3,2015-058P,2026-06-08T11:19:41.963808,14.93960175,.0118867,64.7735,303.0329,61.6022,299.7013,0,U,40977,999,11345,.29973E-3,.3502E-4,0
HORYU-4,2016-012D,2026-06-07T15:50:33.220608,15.89027763,.00028324,30.9848,148.6331,206.9121,153.1392,0,U,41340,999,56929,.1021123E-2,.317249E-2,0
RAVAN,2016-067B,2026-06-08T11:32:41.316000,15.53843577,.0005706,97.9899,48.0522,55.1258,305.0530,0,U,41849,999,52634,.77096E-3,.49719E-3,0
CELTEE 1,2016-067C,2026-06-08T09:12:30.677760,15.19595408,.0000626,98.0685,25.3505,106.7454,253.3848,0,U,41850,999,52454,.24342E-3,.5104E-4,0
OPTICUBE 04,2016-067D,2026-06-08T12:41:26.662848,15.09624388,.0016457,98.0712,11.3608,142.9196,217.3172,0,U,41851,999,52386,.18189E-3,.2862E-4,0
AEROCUBE 8D,2016-067E,2026-06-08T08:37:26.145696,15.24273762,.0004155,98.0697,28.8593,145.1351,215.0157,0,U,41852,999,52472,.26652E-3,.6428E-4,0
AEROCUBE 8C,2016-067F,2026-06-08T09:15:29.154240,15.24519838,.0006825,98.0569,26.1268,92.5986,267.6031,0,U,41853,999,52472,.29386E-3,.7152E-4,0
CORVUS BC2,2017-042X,2026-06-08T10:13:20.332992,15.06240546,.0014203,97.4061,321.1181,137.0473,223.1867,0,U,42846,999,48574,.1924E-3,.2769E-4,0
CORVUS BC1,2017-042Y,2026-06-08T10:07:00.287040,15.06407941,.0013307,97.4085,321.9220,115.8711,244.3891,0,U,42847,999,48577,.19174E-3,.2771E-4,0
MAKERSAT 0,2017-073D,2026-06-07T15:26:30.138432,15.31756991,.01061352,97.4640,41.0894,307.5668,51.5969,0,U,43016,999,46500,.58053729E-3,.21201E-3,0
